{
  "norad_id": 64694,
  "name": "GOSAT-GW (IBUKI GW)",
  "history": [
    {
      "epoch": "2026-03-06T00:45:39.157344Z",
      "apogee_km": 669.84859613341,
      "perigee_km": 667.8296374759448,
      "latitude_deg": 2.3539386759257368e-05,
      "longitude_deg": -171.11883675757994,
      "height_km": 671.7268353524544,
      "semi_major_axis_km": 7046.976116804677,
      "eccentricity": 0.00014325,
      "inclination_deg": 98.0504,
      "raan_deg": 4.0681,
      "arg_perigee_deg": 83.7436,
      "mean_anomaly_deg": 276.3932,
      "mean_motion_rev_day": 14.67569112
    }
  ]
}