{"fetched_at":"2026-03-29T02:12:04Z","count":15717,"tles":[{"name":"GOSAT-GW (IBUKI GW)","line1":"1 64694U 25141A   26065.03170321  .00001373  00000+0  25032-3 0  9996","line2":"2 64694  98.0504   4.0681 0001432  83.7436 276.3932 14.67569112 36718","category":"Other"}]}